NORAD_CAT_ID,OBJECT_NAME,OBJECT_TYPE,EPOCH,MEAN_MOTION,ECCENTRICITY,INCLINATION,RA_OF_ASC_NODE,ARG_OF_PERICENTER,MEAN_ANOMALY,BSTAR,MEAN_MOTION_DOT,MEAN_MOTION_DDOT,TLE_LINE0,TLE_LINE1,TLE_LINE2,SEMIMAJOR_AXIS,PERIOD,APOGEE,PERIGEE,DECAYED
53774.0,STARLINK-4719,PAYLOAD,2024-01-09 19:37:48,15.08840615,0.0001597,53.2165,229.8742,102.6195,257.4976,3.702e-05,3.01e-06,0.0,0 STARLINK-4719,1 53774U 22111B   24009.81791685  .00000301  00000-0  37020-4 0  9993,2 53774  53.2165 229.8742 0001597 102.6195 257.4976 15.08840615 73503,6917.879,95.438,540.848,538.639,0.0
53774.0,STARLINK-4719,PAYLOAD,2024-01-09 21:13:11,15.0884165,0.0001613,53.2164,229.5769,102.6943,257.4229,4.603e-05,4.45e-06,0.0,0 STARLINK-4719,1 53774U 22111B   24009.88415579  .00000445  00000-0  46030-4 0  9995,2 53774  53.2164 229.5769 0001613 102.6943 257.4229 15.08841650 74476,6917.875,95.437,540.856,538.624,0.0
53774.0,STARLINK-4719,PAYLOAD,2024-01-10 00:23:57,15.0884064,0.0001599,53.2161,228.9831,99.0674,261.0499,3.7212e-05,3.04e-06,0.0,0 STARLINK-4719,1 53774U 22111B   24010.01663681  .00000304  00000-0  37212-4 0  9997,2 53774  53.2161 228.9831 0001599  99.0674 261.0499 15.08840640 74499,6917.878,95.438,540.85,538.637,0.0
53774.0,STARLINK-4719,PAYLOAD,2024-01-11 00:14:44,15.08839711,0.0001579,53.216,224.5231,96.8803,263.2369,-1.5706e-05,-5.38e-06,0.0,0 STARLINK-4719,1 53774U 22111B   24011.01023970 -.00000538  00000-0 -15706-4 0  9994,2 53774  53.2160 224.5231 0001579  96.8803 263.2369 15.08839711 73688,6917.881,95.438,540.839,538.654,0.0
53774.0,STARLINK-4719,PAYLOAD,2024-01-11 19:19:22,15.08835529,0.0001542,53.2157,220.9548,102.8182,257.2983,1.2152e-05,-9.5e-07,0.0,0 STARLINK-4719,1 53774U 22111B   24011.80512319 -.00000095  00000-0  12152-4 0  9990,2 53774  53.2157 220.9548 0001542 102.8182 257.2983 15.08835529 74761,6917.894,95.438,540.826,538.692,0.0
53774.0,STARLINK-4719,PAYLOAD,2024-01-12 00:05:32,15.08835035,0.0001534,53.2156,220.0629,102.2192,257.8972,7.1816e-06,-1.74e-06,0.0,0 STARLINK-4719,1 53774U 22111B   24012.00384432 -.00000174  00000-0  71816-5 0  9997,2 53774  53.2156 220.0629 0001534 102.2192 257.8972 15.08835035 74796,6917.896,95.438,540.822,538.699,0.0
53774.0,STARLINK-4719,PAYLOAD,2024-01-12 19:10:09,15.08839818,0.0001439,53.2153,216.4945,100.9299,259.1855,-2.2989e-05,-6.54e-06,0.0,0 STARLINK-4719,1 53774U 22111B   24012.79872568 -.00000654  00000-0 -22989-4 0  9995,2 53774  53.2153 216.4945 0001439 100.9299 259.1855 15.08839818 73955,6917.881,95.438,540.741,538.75,0.0
53774.0,STARLINK-4719,PAYLOAD,2024-01-13 12:39:24,15.08833048,0.0001384,53.2155,213.2237,98.7254,261.3895,0.00013249,1.821e-05,0.0,0 STARLINK-4719,1 53774U 22111B   24013.52736793  .00001821  00000-0  13249-3 0  9999,2 53774  53.2155 213.2237 0001384  98.7254 261.3895 15.08833048 75028,6917.902,95.438,540.724,538.809,0.0
53774.0,STARLINK-4719,PAYLOAD,2024-01-13 20:36:19,15.0884224,0.0001381,53.2154,211.7379,92.9274,267.1876,9.7641e-05,1.266e-05,0.0,0 STARLINK-4719,1 53774U 22111B   24013.85856339  .00001266  00000-0  97641-4 0  9996,2 53774  53.2154 211.7379 0001381  92.9274 267.1876 15.08842240 74118,6917.874,95.437,540.694,538.783,0.0
53774.0,STARLINK-4719,PAYLOAD,2024-01-14 22:02:30,15.0884408,0.0001307,53.215,206.9807,88.1666,271.9476,6.8818e-05,8.08e-06,0.0,0 STARLINK-4719,1 53774U 22111B   24014.91840377  .00000808  00000-0  68818-4 0  9994,2 53774  53.2150 206.9807 0001307  88.1666 271.9476 15.08844080 75233,6917.868,95.437,540.637,538.829,0.0
53774.0,STARLINK-4719,PAYLOAD,2024-01-15 18:42:30,15.08846466,0.0001298,53.2151,203.1142,89.5969,270.5172,4.8657e-05,4.87e-06,0.0,0 STARLINK-4719,1 53774U 22111B   24015.77952053  .00000487  00000-0  48657-4 0  9996,2 53774  53.2151 203.1142 0001298  89.5969 270.5172 15.08846466 75367,6917.861,95.437,540.624,538.828,0.0
53774.0,STARLINK-4719,PAYLOAD,2024-01-16 12:11:45,15.08841162,0.0001264,53.215,199.8431,91.2173,268.8964,2.5746e-05,1.22e-06,0.0,0 STARLINK-4719,1 53774U 22111B   24016.50816323  .00000122  00000-0  25746-4 0  9997,2 53774  53.2150 199.8431 0001264  91.2173 268.8964 15.08841162 74511,6917.877,95.437,540.616,538.867,0.0
53774.0,STARLINK-4719,PAYLOAD,2024-01-16 18:33:17,15.08841145,0.0001245,53.2152,198.6532,93.7297,266.3838,2.1571e-05,5.5e-07,0.0,0 STARLINK-4719,1 53774U 22111B   24016.77312266  .00000055  00000-0  21571-4 0  9990,2 53774  53.2152 198.6532 0001245  93.7297 266.3838 15.08841145 75510,6917.877,95.437,540.603,538.881,0.0
53774.0,STARLINK-4719,PAYLOAD,2024-01-17 15:13:18,15.08840366,0.0001245,53.215,194.7876,93.1855,266.928,2.6416e-05,1.33e-06,0.0,0 STARLINK-4719,1 53774U 22111B   24017.63424251  .00000133  00000-0  26416-4 0  9994,2 53774  53.2150 194.7876 0001245  93.1855 266.9280 15.08840366 75645,6917.879,95.438,540.606,538.883,0.0
53774.0,STARLINK-4719,PAYLOAD,2024-01-17 18:24:04,15.08842031,0.0001256,53.2152,194.1926,94.1469,265.9666,3.7664e-05,3.12e-06,0.0,0 STARLINK-4719,1 53774U 22111B   24017.76672090  .00000312  00000-0  37664-4 0  9990,2 53774  53.2152 194.1926 0001256  94.1469 265.9666 15.08842031 74705,6917.874,95.437,540.608,538.87,0.0
53774.0,STARLINK-4719,PAYLOAD,2024-01-18 11:53:19,15.0883689,0.00014,53.2168,190.9235,99.1573,260.9577,3.6954e-05,3e-06,0.0,0 STARLINK-4719,1 53774U 22111B   24018.49536452  .00000300  00000-0  36954-4 0  9990,2 53774  53.2168 190.9235 0001400  99.1573 260.9577 15.08836890 75771,6917.89,95.438,540.723,538.786,0.0
53774.0,STARLINK-4719,PAYLOAD,2024-01-18 18:14:51,15.08839241,0.0001402,53.2167,189.7336,100.8303,259.2847,5.2724e-05,5.51e-06,0.0,0 STARLINK-4719,1 53774U 22111B   24018.76032277  .00000551  00000-0  52724-4 0  9997,2 53774  53.2167 189.7336 0001402 100.8303 259.2847 15.08839241 75810,6917.883,95.438,540.718,538.778,0.0
53774.0,STARLINK-4719,PAYLOAD,2024-01-19 10:08:43,15.08837605,0.000146,53.2169,186.7601,102.2769,257.8386,3.8674e-05,3.28e-06,0.0,0 STARLINK-4719,1 53774U 22111B   24019.42272496  .00000328  00000-0  38674-4 0  9990,2 53774  53.2169 186.7601 0001460 102.2769 257.8386 15.08837605 74958,6917.888,95.438,540.763,538.743,0.0
53774.0,STARLINK-4719,PAYLOAD,2024-01-19 14:54:52,15.08836636,0.0001477,53.2171,185.8671,105.5243,254.5913,2.8306e-05,1.63e-06,0.0,0 STARLINK-4719,1 53774U 22111B   24019.62144588  .00000163  00000-0  28306-4 0  9990,2 53774  53.2171 185.8671 0001477 105.5243 254.5913 15.08836636 75942,6917.891,95.438,540.777,538.734,0.0
53774.0,STARLINK-4719,PAYLOAD,2024-01-19 16:30:16,15.08836843,0.0001473,53.2171,185.5699,105.409,254.7065,2.8505e-05,1.66e-06,0.0,0 STARLINK-4719,1 53774U 22111B   24019.68768584  .00000166  00000-0  28505-4 0  9998,2 53774  53.2171 185.5699 0001473 105.4090 254.7065 15.08836843 75955,6917.89,95.438,540.774,538.736,0.0
53774.0,STARLINK-4719,PAYLOAD,2024-01-20 14:45:40,15.08833783,0.0001296,53.2159,181.4065,96.1378,263.9762,-7.0689e-06,-4e-06,0.0,0 STARLINK-4719,1 53774U 22111B   24020.61505217 -.00000400  00000-0 -70689-5 0  9999,2 53774  53.2159 181.4065 0001296  96.1378 263.9762 15.08833783 76093,6917.899,95.438,540.661,538.868,0.0
53774.0,STARLINK-4719,PAYLOAD,2024-01-20 19:31:49,15.0883867,0.0001302,53.2159,180.5143,92.9083,267.2058,3.4057e-05,2.54e-06,0.0,0 STARLINK-4719,1 53774U 22111B   24020.81376838  .00000254  00000-0  34057-4 0  9999,2 53774  53.2159 180.5143 0001302  92.9083 267.2058 15.08838670 75167,6917.884,95.438,540.65,538.849,0.0
53774.0,STARLINK-4719,PAYLOAD,2024-01-20 21:07:12,15.08838674,0.0001303,53.2159,180.217,92.9617,267.1524,3.3173e-05,2.4e-06,0.0,0 STARLINK-4719,1 53774U 22111B   24020.88000838  .00000240  00000-0  33173-4 0  9993,2 53774  53.2159 180.2170 0001303  92.9617 267.1524 15.08838674 76137,6917.884,95.438,540.651,538.848,0.0
53774.0,STARLINK-4719,PAYLOAD,2024-01-21 09:50:18,15.08810408,0.0001406,53.2169,177.8372,94.6662,265.4491,0.00035928,5.43e-05,0.0,0 STARLINK-4719,1 53774U 22111B   24021.40993461  .00005430  00000-0  35928-3 0  9990,2 53774  53.2169 177.8372 0001406  94.6662 265.4491 15.08810408 75258,6917.971,95.439,540.809,538.863,0.0
53774.0,STARLINK-4719,PAYLOAD,2024-01-21 19:22:36,15.08845188,0.0001387,53.2164,176.0539,83.7834,276.3317,0.00011225,1.499e-05,0.0,0 STARLINK-4719,1 53774U 22111B   24021.80736399  .00001499  00000-0  11225-3 0  9994,2 53774  53.2164 176.0539 0001387  83.7834 276.3317 15.08845188 75315,6917.865,95.437,540.689,538.77,0.0
53774.0,STARLINK-4719,PAYLOAD,2024-01-22 09:41:05,15.08834927,0.0001334,53.2172,173.3738,116.8734,243.2395,7.2904e-07,-2.76e-06,0.0,0 STARLINK-4719,1 53774U 22111B   24022.40353339 -.00000276  00000-0  72904-6 0  9997,2 53774  53.2172 173.3738 0001334 116.8734 243.2395 15.08834927 75402,6917.896,95.438,540.684,538.838,0.0
53774.0,STARLINK-4719,PAYLOAD,2024-01-22 17:38:00,15.08840071,0.000143,53.2166,171.8911,79.1383,280.977,5.4658e-05,5.82e-06,0.0,0 STARLINK-4719,1 53774U 22111B   24022.73473105  .00000582  00000-0  54658-4 0  9990,2 53774  53.2166 171.8911 0001430  79.1383 280.9770 15.08840071 76413,6917.88,95.438,540.734,538.756,0.0
53774.0,STARLINK-4719,PAYLOAD,2024-01-23 15:53:24,15.08845082,0.0001316,53.2168,167.7275,84.7407,275.3735,-2.7999e-07,-2.92e-06,0.0,0 STARLINK-4719,1 53774U 22111B   24023.66208900 -.00000292  00000-0 -27999-6 0  9992,2 53774  53.2168 167.7275 0001316  84.7407 275.3735 15.08845082 76555,6917.865,95.437,540.64,538.819,0.0
53774.0,STARLINK-4719,PAYLOAD,2024-01-24 12:33:25,15.08837458,0.0001385,53.217,163.8622,73.4024,286.712,-4.561e-06,-3.61e-06,0.0,0 STARLINK-4719,1 53774U 22111B   24024.52321554 -.00000361  00000-0 -45610-5 0  9995,2 53774  53.2170 163.8622 0001385  73.4024 286.7120 15.08837458 75727,6917.888,95.438,540.711,538.795,0.0
53774.0,STARLINK-4719,PAYLOAD,2024-01-24 14:08:48,15.08837908,0.0001431,53.2172,163.565,71.3447,288.7701,-4.7932e-07,-2.96e-06,0.0,0 STARLINK-4719,1 53774U 22111B   24024.58945545 -.00000296  00000-0 -47932-6 0  9990,2 53774  53.2172 163.5650 0001431  71.3447 288.7701 15.08837908 76699,6917.887,95.438,540.742,538.762,0.0
